{
  "metadata": {
    "lastUpdated": "2026-02-27",
    "version": "1.0",
    "totalFlags": 249,
    "description": "Banderas del mundo con c칩digos ISO 3166-1 alpha-2 y emojis"
  },
  "categories": [
    { "id": "all", "name": "Todas", "emoji": "游깴" },
    { "id": "africa", "name": "츼frica", "emoji": "游부" },
    { "id": "americas", "name": "Am칠ricas", "emoji": "游깵" },
    { "id": "asia", "name": "Asia", "emoji": "久뾆잺" },
    { "id": "europe", "name": "Europa", "emoji": "游낋" },
    { "id": "oceania", "name": "Ocean칤a", "emoji": "游꺜" }
  ],
  "flags": [
    {
      "id": "AD",
      "name": "Andorra",
      "category": "europe",
      "emoji": "游뷣릖",
      "code": "AD",
      "dial_code": "+376"
    },
    {
      "id": "AE",
      "name": "Emiratos 츼rabes Unidos",
      "category": "asia",
      "emoji": "游뷣릖",
      "code": "AE",
      "dial_code": "+971"
    },
    {
      "id": "AF",
      "name": "Afganist치n",
      "category": "asia",
      "emoji": "游뷣릖",
      "code": "AF",
      "dial_code": "+93"
    },
    {
      "id": "AG",
      "name": "Antigua y Barbuda",
      "category": "americas",
      "emoji": "游뷣릖",
      "code": "AG",
      "dial_code": "+1-268"
    },
    {
      "id": "AI",
      "name": "Anguila",
      "category": "americas",
      "emoji": "游뷣릖",
      "code": "AI",
      "dial_code": "+1-264"
    },
    {
      "id": "AL",
      "name": "Albania",
      "category": "europe",
      "emoji": "游뷣릖",
      "code": "AL",
      "dial_code": "+355"
    },
    {
      "id": "AM",
      "name": "Armenia",
      "category": "asia",
      "emoji": "游뷣릖",
      "code": "AM",
      "dial_code": "+374"
    },
    {
      "id": "AO",
      "name": "Angola",
      "category": "africa",
      "emoji": "游뷣릖",
      "code": "AO",
      "dial_code": "+244"
    },
    {
      "id": "AQ",
      "name": "Ant치rtida",
      "category": "oceania",
      "emoji": "游뷣릖",
      "code": "AQ",
      "dial_code": "+672"
    },
    {
      "id": "AR",
      "name": "Argentina",
      "category": "americas",
      "emoji": "游뷣릖",
      "code": "AR",
      "dial_code": "+54"
    },
    {
      "id": "AS",
      "name": "Samoa Americana",
      "category": "oceania",
      "emoji": "游뷣릖",
      "code": "AS",
      "dial_code": "+1-684"
    },
    {
      "id": "AT",
      "name": "Austria",
      "category": "europe",
      "emoji": "游뷣릖",
      "code": "AT",
      "dial_code": "+43"
    },
    {
      "id": "AU",
      "name": "Australia",
      "category": "oceania",
      "emoji": "游뷣릖",
      "code": "AU",
      "dial_code": "+61"
    },
    {
      "id": "AW",
      "name": "Aruba",
      "category": "americas",
      "emoji": "游뷣릖",
      "code": "AW",
      "dial_code": "+297"
    },
    {
      "id": "AX",
      "name": "Islas 칀land",
      "category": "europe",
      "emoji": "游뷣릖",
      "code": "AX",
      "dial_code": "+358-18"
    },
    {
      "id": "AZ",
      "name": "Azerbaiy치n",
      "category": "asia",
      "emoji": "游뷣릖",
      "code": "AZ",
      "dial_code": "+994"
    },
    {
      "id": "BA",
      "name": "Bosnia y Herzegovina",
      "category": "europe",
      "emoji": "游游",
      "code": "BA",
      "dial_code": "+387"
    },
    {
      "id": "BB",
      "name": "Barbados",
      "category": "americas",
      "emoji": "游游",
      "code": "BB",
      "dial_code": "+1-246"
    },
    {
      "id": "BD",
      "name": "Bangladesh",
      "category": "asia",
      "emoji": "游游",
      "code": "BD",
      "dial_code": "+880"
    },
    {
      "id": "BE",
      "name": "B칠lgica",
      "category": "europe",
      "emoji": "游游",
      "code": "BE",
      "dial_code": "+32"
    },
    {
      "id": "BF",
      "name": "Burkina Faso",
      "category": "africa",
      "emoji": "游游",
      "code": "BF",
      "dial_code": "+226"
    },
    {
      "id": "BG",
      "name": "Bulgaria",
      "category": "europe",
      "emoji": "游游",
      "code": "BG",
      "dial_code": "+359"
    },
    {
      "id": "BH",
      "name": "Bar칠in",
      "category": "asia",
      "emoji": "游游",
      "code": "BH",
      "dial_code": "+973"
    },
    {
      "id": "BI",
      "name": "Burundi",
      "category": "africa",
      "emoji": "游游",
      "code": "BI",
      "dial_code": "+257"
    },
    {
      "id": "BJ",
      "name": "Ben칤n",
      "category": "africa",
      "emoji": "游游",
      "code": "BJ",
      "dial_code": "+229"
    },
    {
      "id": "BL",
      "name": "San Bartolom칠",
      "category": "americas",
      "emoji": "游游",
      "code": "BL",
      "dial_code": "+590"
    },
    {
      "id": "BM",
      "name": "Bermudas",
      "category": "americas",
      "emoji": "游游",
      "code": "BM",
      "dial_code": "+1-441"
    },
    {
      "id": "BN",
      "name": "Brun칠i",
      "category": "asia",
      "emoji": "游游",
      "code": "BN",
      "dial_code": "+673"
    },
    {
      "id": "BO",
      "name": "Bolivia",
      "category": "americas",
      "emoji": "游游",
      "code": "BO",
      "dial_code": "+591"
    },
    {
      "id": "BQ",
      "name": "Bonaire, San Eustaquio y Saba",
      "category": "americas",
      "emoji": "游游",
      "code": "BQ",
      "dial_code": "+599"
    },
    {
      "id": "BR",
      "name": "Brasil",
      "category": "americas",
      "emoji": "游游",
      "code": "BR",
      "dial_code": "+55"
    },
    {
      "id": "BS",
      "name": "Bahamas",
      "category": "americas",
      "emoji": "游游",
      "code": "BS",
      "dial_code": "+1-242"
    },
    {
      "id": "BT",
      "name": "But치n",
      "category": "asia",
      "emoji": "游游",
      "code": "BT",
      "dial_code": "+975"
    },
    {
      "id": "BV",
      "name": "Isla Bouvet",
      "category": "africa",
      "emoji": "游游",
      "code": "BV",
      "dial_code": "+47"
    },
    {
      "id": "BW",
      "name": "Botsuana",
      "category": "africa",
      "emoji": "游游",
      "code": "BW",
      "dial_code": "+267"
    },
    {
      "id": "BY",
      "name": "Bielorrusia",
      "category": "europe",
      "emoji": "游游",
      "code": "BY",
      "dial_code": "+375"
    },
    {
      "id": "BZ",
      "name": "Belice",
      "category": "americas",
      "emoji": "游游",
      "code": "BZ",
      "dial_code": "+501"
    },
    {
      "id": "CA",
      "name": "Canad치",
      "category": "americas",
      "emoji": "游뻟릖",
      "code": "CA",
      "dial_code": "+1"
    },
    {
      "id": "CC",
      "name": "Islas Cocos",
      "category": "oceania",
      "emoji": "游뻟릖",
      "code": "CC",
      "dial_code": "+61"
    },
    {
      "id": "CD",
      "name": "Congo (Rep. Dem.)",
      "category": "africa",
      "emoji": "游뻟릖",
      "code": "CD",
      "dial_code": "+243"
    },
    {
      "id": "CF",
      "name": "Rep칰blica Centroafricana",
      "category": "africa",
      "emoji": "游뻟릖",
      "code": "CF",
      "dial_code": "+236"
    },
    {
      "id": "CG",
      "name": "Congo",
      "category": "africa",
      "emoji": "游뻟릖",
      "code": "CG",
      "dial_code": "+242"
    },
    {
      "id": "CH",
      "name": "Suiza",
      "category": "europe",
      "emoji": "游뻟릖",
      "code": "CH",
      "dial_code": "+41"
    },
    {
      "id": "CI",
      "name": "Costa de Marfil",
      "category": "africa",
      "emoji": "游뻟릖",
      "code": "CI",
      "dial_code": "+225"
    },
    {
      "id": "CK",
      "name": "Islas Cook",
      "category": "oceania",
      "emoji": "游뻟릖",
      "code": "CK",
      "dial_code": "+682"
    },
    {
      "id": "CL",
      "name": "Chile",
      "category": "americas",
      "emoji": "游뻟릖",
      "code": "CL",
      "dial_code": "+56"
    },
    {
      "id": "CM",
      "name": "Camer칰n",
      "category": "africa",
      "emoji": "游뻟릖",
      "code": "CM",
      "dial_code": "+237"
    },
    {
      "id": "CN",
      "name": "China",
      "category": "asia",
      "emoji": "游뻟릖",
      "code": "CN",
      "dial_code": "+86"
    },
    {
      "id": "CO",
      "name": "Colombia",
      "category": "americas",
      "emoji": "游뻟릖",
      "code": "CO",
      "dial_code": "+57"
    },
    {
      "id": "CR",
      "name": "Costa Rica",
      "category": "americas",
      "emoji": "游뻟릖",
      "code": "CR",
      "dial_code": "+506"
    },
    {
      "id": "CU",
      "name": "Cuba",
      "category": "americas",
      "emoji": "游뻟릖",
      "code": "CU",
      "dial_code": "+53"
    },
    {
      "id": "CV",
      "name": "Cabo Verde",
      "category": "africa",
      "emoji": "游뻟릖",
      "code": "CV",
      "dial_code": "+238"
    },
    {
      "id": "CW",
      "name": "Curazao",
      "category": "americas",
      "emoji": "游뻟릖",
      "code": "CW",
      "dial_code": "+599"
    },
    {
      "id": "CX",
      "name": "Isla de Navidad",
      "category": "oceania",
      "emoji": "游뻟릖",
      "code": "CX",
      "dial_code": "+61"
    },
    {
      "id": "CY",
      "name": "Chipre",
      "category": "europe",
      "emoji": "游뻟릖",
      "code": "CY",
      "dial_code": "+357"
    },
    {
      "id": "CZ",
      "name": "Chequia",
      "category": "europe",
      "emoji": "游뻟릖",
      "code": "CZ",
      "dial_code": "+420"
    },
    {
      "id": "DE",
      "name": "Alemania",
      "category": "europe",
      "emoji": "游뾇릖",
      "code": "DE",
      "dial_code": "+49"
    },
    {
      "id": "DJ",
      "name": "Yibuti",
      "category": "africa",
      "emoji": "游뾇릖",
      "code": "DJ",
      "dial_code": "+253"
    },
    {
      "id": "DK",
      "name": "Dinamarca",
      "category": "europe",
      "emoji": "游뾇릖",
      "code": "DK",
      "dial_code": "+45"
    },
    {
      "id": "DM",
      "name": "Dominica",
      "category": "americas",
      "emoji": "游뾇릖",
      "code": "DM",
      "dial_code": "+1-767"
    },
    {
      "id": "DO",
      "name": "Rep칰blica Dominicana",
      "category": "americas",
      "emoji": "游뾇릖",
      "code": "DO",
      "dial_code": "+1-809"
    },
    {
      "id": "DZ",
      "name": "Argelia",
      "category": "africa",
      "emoji": "游뾇릖",
      "code": "DZ",
      "dial_code": "+213"
    }
     {
      "id": "EC",
      "name": "Ecuador",
      "category": "americas",
      "emoji": "游쀯릖",
      "code": "EC",
      "dial_code": "+593"
    },
    {
      "id": "EE",
      "name": "Estonia",
      "category": "europe",
      "emoji": "游쀯릖",
      "code": "EE",
      "dial_code": "+372"
    },
    {
      "id": "EG",
      "name": "Egipto",
      "category": "africa",
      "emoji": "游쀯릖",
      "code": "EG",
      "dial_code": "+20"
    },
    {
      "id": "EH",
      "name": "Sahara Occidental",
      "category": "africa",
      "emoji": "游쀯릖",
      "code": "EH",
      "dial_code": "+212"
    },
    {
      "id": "ER",
      "name": "Eritrea",
      "category": "africa",
      "emoji": "游쀯릖",
      "code": "ER",
      "dial_code": "+291"
    },
    {
      "id": "ES",
      "name": "Espa침a",
      "category": "europe",
      "emoji": "游쀯릖",
      "code": "ES",
      "dial_code": "+34"
    },
    {
      "id": "ET",
      "name": "Etiop칤a",
      "category": "africa",
      "emoji": "游쀯릖",
      "code": "ET",
      "dial_code": "+251"
    },
    {
      "id": "FI",
      "name": "Finlandia",
      "category": "europe",
      "emoji": "游游",
      "code": "FI",
      "dial_code": "+358"
    },
    {
      "id": "FJ",
      "name": "Fiyi",
      "category": "oceania",
      "emoji": "游游",
      "code": "FJ",
      "dial_code": "+679"
    },
    {
      "id": "FK",
      "name": "Islas Malvinas",
      "category": "americas",
      "emoji": "游游",
      "code": "FK",
      "dial_code": "+500"
    },
    {
      "id": "FM",
      "name": "Micronesia",
      "category": "oceania",
      "emoji": "游游",
      "code": "FM",
      "dial_code": "+691"
    },
    {
      "id": "FO",
      "name": "Islas Feroe",
      "category": "europe",
      "emoji": "游游",
      "code": "FO",
      "dial_code": "+298"
    },
    {
      "id": "FR",
      "name": "Francia",
      "category": "europe",
      "emoji": "游游",
      "code": "FR",
      "dial_code": "+33"
    },
    {
      "id": "GA",
      "name": "Gab칩n",
      "category": "africa",
      "emoji": "游섫릖",
      "code": "GA",
      "dial_code": "+241"
    },
    {
      "id": "GB",
      "name": "Reino Unido",
      "category": "europe",
      "emoji": "游섫릖",
      "code": "GB",
      "dial_code": "+44"
    },
    {
      "id": "GD",
      "name": "Granada",
      "category": "americas",
      "emoji": "游섫릖",
      "code": "GD",
      "dial_code": "+1-473"
    },
    {
      "id": "GE",
      "name": "Georgia",
      "category": "asia",
      "emoji": "游섫릖",
      "code": "GE",
      "dial_code": "+995"
    },
    {
      "id": "GF",
      "name": "Guayana Francesa",
      "category": "americas",
      "emoji": "游섫릖",
      "code": "GF",
      "dial_code": "+594"
    },
    {
      "id": "GG",
      "name": "Guernsey",
      "category": "europe",
      "emoji": "游섫릖",
      "code": "GG",
      "dial_code": "+44-1481"
    },
    {
      "id": "GH",
      "name": "Ghana",
      "category": "africa",
      "emoji": "游섫릖",
      "code": "GH",
      "dial_code": "+233"
    },
    {
      "id": "GI",
      "name": "Gibraltar",
      "category": "europe",
      "emoji": "游섫릖",
      "code": "GI",
      "dial_code": "+350"
    },
    {
      "id": "GL",
      "name": "Groenlandia",
      "category": "americas",
      "emoji": "游섫릖",
      "code": "GL",
      "dial_code": "+299"
    },
    {
      "id": "GM",
      "name": "Gambia",
      "category": "africa",
      "emoji": "游섫릖",
      "code": "GM",
      "dial_code": "+220"
    },
    {
      "id": "GN",
      "name": "Guinea",
      "category": "africa",
      "emoji": "游섫릖",
      "code": "GN",
      "dial_code": "+224"
    },
    {
      "id": "GP",
      "name": "Guadalupe",
      "category": "americas",
      "emoji": "游섫릖",
      "code": "GP",
      "dial_code": "+590"
    },
    {
      "id": "GQ",
      "name": "Guinea Ecuatorial",
      "category": "africa",
      "emoji": "游섫릖",
      "code": "GQ",
      "dial_code": "+240"
    },
    {
      "id": "GR",
      "name": "Grecia",
      "category": "europe",
      "emoji": "游섫릖",
      "code": "GR",
      "dial_code": "+30"
    },
    {
      "id": "GS",
      "name": "Islas Georgia del Sur y Sandwich del Sur",
      "category": "americas",
      "emoji": "游섫릖",
      "code": "GS",
      "dial_code": "+500"
    },
    {
      "id": "GT",
      "name": "Guatemala",
      "category": "americas",
      "emoji": "游섫릖",
      "code": "GT",
      "dial_code": "+502"
    },
    {
      "id": "GU",
      "name": "Guam",
      "category": "oceania",
      "emoji": "游섫릖",
      "code": "GU",
      "dial_code": "+1-671"
    },
    {
      "id": "GW",
      "name": "Guinea-Bis치u",
      "category": "africa",
      "emoji": "游섫릖",
      "code": "GW",
      "dial_code": "+245"
    },
    {
      "id": "GY",
      "name": "Guyana",
      "category": "americas",
      "emoji": "游섫릖",
      "code": "GY",
      "dial_code": "+592"
    },
    {
      "id": "HK",
      "name": "Hong Kong",
      "category": "asia",
      "emoji": "游쇓릖",
      "code": "HK",
      "dial_code": "+852"
    },
    {
      "id": "HM",
      "name": "Islas Heard y McDonald",
      "category": "oceania",
      "emoji": "游쇓릖",
      "code": "HM",
      "dial_code": "+672"
    },
    {
      "id": "HN",
      "name": "Honduras",
      "category": "americas",
      "emoji": "游쇓릖",
      "code": "HN",
      "dial_code": "+504"
    },
    {
      "id": "HR",
      "name": "Croacia",
      "category": "europe",
      "emoji": "游쇓릖",
      "code": "HR",
      "dial_code": "+385"
    },
    {
      "id": "HT",
      "name": "Hait칤",
      "category": "americas",
      "emoji": "游쇓릖",
      "code": "HT",
      "dial_code": "+509"
    },
    {
      "id": "HU",
      "name": "Hungr칤a",
      "category": "europe",
      "emoji": "游쇓릖",
      "code": "HU",
      "dial_code": "+36"
    }
    {
      "id": "ID",
      "name": "Indonesia",
      "category": "asia",
      "emoji": "游쉻릖",
      "code": "ID",
      "dial_code": "+62"
    },
    {
      "id": "IE",
      "name": "Irlanda",
      "category": "europe",
      "emoji": "游쉻릖",
      "code": "IE",
      "dial_code": "+353"
    },
    {
      "id": "IL",
      "name": "Israel",
      "category": "asia",
      "emoji": "游쉻릖",
      "code": "IL",
      "dial_code": "+972"
    },
    {
      "id": "IM",
      "name": "Isla de Man",
      "category": "europe",
      "emoji": "游쉻릖",
      "code": "IM",
      "dial_code": "+44-1624"
    },
    {
      "id": "IN",
      "name": "India",
      "category": "asia",
      "emoji": "游쉻릖",
      "code": "IN",
      "dial_code": "+91"
    },
    {
      "id": "IO",
      "name": "Territorio Brit치nico del Oc칠ano 칈ndico",
      "category": "asia",
      "emoji": "游쉻릖",
      "code": "IO",
      "dial_code": "+246"
    },
    {
      "id": "IQ",
      "name": "Irak",
      "category": "asia",
      "emoji": "游쉻릖",
      "code": "IQ",
      "dial_code": "+964"
    },
    {
      "id": "IR",
      "name": "Ir치n",
      "category": "asia",
      "emoji": "游쉻릖",
      "code": "IR",
      "dial_code": "+98"
    },
    {
      "id": "IS",
      "name": "Islandia",
      "category": "europe",
      "emoji": "游쉻릖",
      "code": "IS",
      "dial_code": "+354"
    },
    {
      "id": "IT",
      "name": "Italia",
      "category": "europe",
      "emoji": "游쉻릖",
      "code": "IT",
      "dial_code": "+39"
    },
    {
      "id": "JE",
      "name": "Jersey",
      "category": "europe",
      "emoji": "游游",
      "code": "JE",
      "dial_code": "+44-1534"
    },
    {
      "id": "JM",
      "name": "Jamaica",
      "category": "americas",
      "emoji": "游游",
      "code": "JM",
      "dial_code": "+1-876"
    },
    {
      "id": "JO",
      "name": "Jordania",
      "category": "asia",
      "emoji": "游游",
      "code": "JO",
      "dial_code": "+962"
    },
    {
      "id": "JP",
      "name": "Jap칩n",
      "category": "asia",
      "emoji": "游游",
      "code": "JP",
      "dial_code": "+81"
    },
    {
      "id": "KE",
      "name": "Kenia",
      "category": "africa",
      "emoji": "游썷릖",
      "code": "KE",
      "dial_code": "+254"
    },
    {
      "id": "KG",
      "name": "Kirguist치n",
      "category": "asia",
      "emoji": "游썷릖",
      "code": "KG",
      "dial_code": "+996"
    },
    {
      "id": "KH",
      "name": "Camboya",
      "category": "asia",
      "emoji": "游썷릖",
      "code": "KH",
      "dial_code": "+855"
    },
    {
      "id": "KI",
      "name": "Kiribati",
      "category": "oceania",
      "emoji": "游썷릖",
      "code": "KI",
      "dial_code": "+686"
    },
    {
      "id": "KM",
      "name": "Comoras",
      "category": "africa",
      "emoji": "游썷릖",
      "code": "KM",
      "dial_code": "+269"
    },
    {
      "id": "KN",
      "name": "San Crist칩bal y Nieves",
      "category": "americas",
      "emoji": "游썷릖",
      "code": "KN",
      "dial_code": "+1-869"
    },
    {
      "id": "KP",
      "name": "Corea del Norte",
      "category": "asia",
      "emoji": "游썷릖",
      "code": "KP",
      "dial_code": "+850"
    },
    {
      "id": "KR",
      "name": "Corea del Sur",
      "category": "asia",
      "emoji": "游썷릖",
      "code": "KR",
      "dial_code": "+82"
    },
    {
      "id": "KW",
      "name": "Kuwait",
      "category": "asia",
      "emoji": "游썷릖",
      "code": "KW",
      "dial_code": "+965"
    },
    {
      "id": "KY",
      "name": "Islas Caim치n",
      "category": "americas",
      "emoji": "游썷릖",
      "code": "KY",
      "dial_code": "+1-345"
    },
    {
      "id": "KZ",
      "name": "Kazajist치n",
      "category": "asia",
      "emoji": "游썷릖",
      "code": "KZ",
      "dial_code": "+7"
    },
    {
      "id": "LA",
      "name": "Laos",
      "category": "asia",
      "emoji": "游쐟릖",
      "code": "LA",
      "dial_code": "+856"
    },
    {
      "id": "LB",
      "name": "L칤bano",
      "category": "asia",
      "emoji": "游쐟릖",
      "code": "LB",
      "dial_code": "+961"
    },
    {
      "id": "LC",
      "name": "Santa Luc칤a",
      "category": "americas",
      "emoji": "游쐟릖",
      "code": "LC",
      "dial_code": "+1-758"
    },
    {
      "id": "LI",
      "name": "Liechtenstein",
      "category": "europe",
      "emoji": "游쐟릖",
      "code": "LI",
      "dial_code": "+423"
    },
    {
      "id": "LK",
      "name": "Sri Lanka",
      "category": "asia",
      "emoji": "游쐟릖",
      "code": "LK",
      "dial_code": "+94"
    },
    {
      "id": "LR",
      "name": "Liberia",
      "category": "africa",
      "emoji": "游쐟릖",
      "code": "LR",
      "dial_code": "+231"
    },
    {
      "id": "LS",
      "name": "Lesoto",
      "category": "africa",
      "emoji": "游쐟릖",
      "code": "LS",
      "dial_code": "+266"
    },
    {
      "id": "LT",
      "name": "Lituania",
      "category": "europe",
      "emoji": "游쐟릖",
      "code": "LT",
      "dial_code": "+370"
    },
    {
      "id": "LU",
      "name": "Luxemburgo",
      "category": "europe",
      "emoji": "游쐟릖",
      "code": "LU",
      "dial_code": "+352"
    },
    {
      "id": "LV",
      "name": "Letonia",
      "category": "europe",
      "emoji": "游쐟릖",
      "code": "LV",
      "dial_code": "+371"
    },
    {
      "id": "LY",
      "name": "Libia",
      "category": "africa",
      "emoji": "游쐟릖",
      "code": "LY",
      "dial_code": "+218"
    },
    {
      "id": "MA",
      "name": "Marruecos",
      "category": "africa",
      "emoji": "游쓇릖",
      "code": "MA",
      "dial_code": "+212"
    },
    {
      "id": "MC",
      "name": "M칩naco",
      "category": "europe",
      "emoji": "游쓇릖",
      "code": "MC",
      "dial_code": "+377"
    },
    {
      "id": "MD",
      "name": "Moldavia",
      "category": "europe",
      "emoji": "游쓇릖",
      "code": "MD",
      "dial_code": "+373"
    },
    {
      "id": "ME",
      "name": "Montenegro",
      "category": "europe",
      "emoji": "游쓇릖",
      "code": "ME",
      "dial_code": "+382"
    },
    {
      "id": "MF",
      "name": "San Mart칤n (Francia)",
      "category": "americas",
      "emoji": "游쓇릖",
      "code": "MF",
      "dial_code": "+590"
    },
    {
      "id": "MG",
      "name": "Madagascar",
      "category": "africa",
      "emoji": "游쓇릖",
      "code": "MG",
      "dial_code": "+261"
    },
    {
      "id": "MH",
      "name": "Islas Marshall",
      "category": "oceania",
      "emoji": "游쓇릖",
      "code": "MH",
      "dial_code": "+692"
    },
    {
      "id": "MK",
      "name": "Macedonia del Norte",
      "category": "europe",
      "emoji": "游쓇릖",
      "code": "MK",
      "dial_code": "+389"
    },
    {
      "id": "ML",
      "name": "Mal칤",
      "category": "africa",
      "emoji": "游쓇릖",
      "code": "ML",
      "dial_code": "+223"
    },
    {
      "id": "MM",
      "name": "Myanmar (Birmania)",
      "category": "asia",
      "emoji": "游쓇릖",
      "code": "MM",
      "dial_code": "+95"
    },
    {
      "id": "MN",
      "name": "Mongolia",
      "category": "asia",
      "emoji": "游쓇릖",
      "code": "MN",
      "dial_code": "+976"
    },
    {
      "id": "MO",
      "name": "Macao",
      "category": "asia",
      "emoji": "游쓇릖",
      "code": "MO",
      "dial_code": "+853"
    },
    {
      "id": "MP",
      "name": "Islas Marianas del Norte",
      "category": "oceania",
      "emoji": "游쓇릖",
      "code": "MP",
      "dial_code": "+1-670"
    },
    {
      "id": "MQ",
      "name": "Martinica",
      "category": "americas",
      "emoji": "游쓇릖",
      "code": "MQ",
      "dial_code": "+596"
    },
    {
      "id": "MR",
      "name": "Mauritania",
      "category": "africa",
      "emoji": "游쓇릖",
      "code": "MR",
      "dial_code": "+222"
    },
    {
      "id": "MS",
      "name": "Montserrat",
      "category": "americas",
      "emoji": "游쓇릖",
      "code": "MS",
      "dial_code": "+1-664"
    },
    {
      "id": "MT",
      "name": "Malta",
      "category": "europe",
      "emoji": "游쓇릖",
      "code": "MT",
      "dial_code": "+356"
    },
    {
      "id": "MU",
      "name": "Mauricio",
      "category": "africa",
      "emoji": "游쓇릖",
      "code": "MU",
      "dial_code": "+230"
    },
    {
      "id": "MV",
      "name": "Maldivas",
      "category": "asia",
      "emoji": "游쓇릖",
      "code": "MV",
      "dial_code": "+960"
    },
    {
      "id": "MW",
      "name": "Malaui",
      "category": "africa",
      "emoji": "游쓇릖",
      "code": "MW",
      "dial_code": "+265"
    },
    {
      "id": "MX",
      "name": "M칠xico",
      "category": "americas",
      "emoji": "游쓇릖",
      "code": "MX",
      "dial_code": "+52"
    },
    {
      "id": "MY",
      "name": "Malasia",
      "category": "asia",
      "emoji": "游쓇릖",
      "code": "MY",
      "dial_code": "+60"
    },
    {
      "id": "MZ",
      "name": "Mozambique",
      "category": "africa",
      "emoji": "游쓇릖",
      "code": "MZ",
      "dial_code": "+258"
    }
  ]
}